ONEWEB-0228             
1 48780U 21045P   24118.57650155  .00000122  00000+0  29008-3 0  9995
2 48780  87.9038  54.5172 0001801  81.8611 278.2724 13.15548937141692
